[{"OBJECT_NAME":"JILIN-1 07","OBJECT_ID":"2018-008E","EPOCH":"2026-03-09T22:24:26.445888","MEAN_MOTION":15.32987507,"ECCENTRICITY":0.00101791,"INCLINATION":97.1876,"RA_OF_ASC_NODE":91.5817,"ARG_OF_PERICENTER":62.7832,"MEAN_ANOMALY":297.4447,"EPHEMERIS_TYPE":0,"CLASSIFICATION_TYPE":"U","NORAD_CAT_ID":43159,"ELEMENT_SET_NO":999,"REV_AT_EPOCH":44978,"BSTAR":0.00036439521,"MEAN_MOTION_DOT":0.00011559,"MEAN_MOTION_DDOT":0},{"OBJECT_NAME":"STARLINK-2695","OBJECT_ID":"2021-044G","EPOCH":"2026-03-09T09:50:29.031072","MEAN_MOTION":15.3020115,"ECCENTRICITY":0.0001433,"INCLINATION":53.1595,"RA_OF_ASC_NODE":115.3558,"ARG_OF_PERICENTER":76.772,"MEAN_ANOMALY":283.3441,"EPHEMERIS_TYPE":0,"CLASSIFICATION_TYPE":"U","NORAD_CAT_ID":48644,"ELEMENT_SET_NO":999,"REV_AT_EPOCH":26378,"BSTAR":5.9383872e-5,"MEAN_MOTION_DOT":1.4e-5,"MEAN_MOTION_DDOT":0}]
